start=new Date('2022-03-11T00:00:00.000Z').valueOf();
sats=[{"MEAN_MOTION":"15.06389361","FILE":"3354091","TLE_LINE1":"1 48288U 21036N   22069.61639116  .00003613  00000-0  26143-3 0  9996","MEAN_MOTION_DDOT":"0.0000000000000","RCS_SIZE":"LARGE","PERIOD":"95.593","EPOCH":"2022-03-10T14:47:36.196224","MEAN_ANOMALY":"300.7014","COUNTRY_CODE":"US","PERIAPSIS":"545.987","EPHEMERIS_TYPE":"0","NORAD_CAT_ID":"48288","APOAPSIS":"548.505","REF_FRAME":"TEME","SITE":"AFETR","GP_ID":"198438007","ARG_OF_PERICENTER":"59.4154","ECCENTRICITY":"0.00018180","OBJECT_NAME":"STARLINK-2562","OBJECT_ID":"2021-036N","CLASSIFICATION_TYPE":"U","MEAN_ELEMENT_THEORY":"SGP4","RA_OF_ASC_NODE":"156.1559","LAUNCH_DATE":"2021-04-29","TLE_LINE2":"2 48288  53.0555 156.1559 0001818  59.4154 300.7014 15.06389361 48248","SEMIMAJOR_AXIS":"6925.381","DECAY_DATE":null,"ELEMENT_SET_NO":"999","TIME_SYSTEM":"UTC","BSTAR":"0.00026143000000","REV_AT_EPOCH":"4824","OBJECT_TYPE":"PAYLOAD","CENTER_NAME":"EARTH","INCLINATION":"53.0555","MEAN_MOTION_DOT":"0.00003613"},{"RCS_SIZE":"LARGE","EPOCH":"2022-03-10T13:06:44.709120","PERIOD":"95.592","MEAN_MOTION_DDOT":"0.0000000000000","TLE_LINE1":"1 48289U 21036P   22069.54635080  .00002527  00000-0  18845-3 0  9998","FILE":"3353523","MEAN_MOTION":"15.06400495","COUNTRY_CODE":"US","MEAN_ANOMALY":"302.0259","APOAPSIS":"548.073","NORAD_CAT_ID":"48289","EPHEMERIS_TYPE":"0","REF_FRAME":"TEME","PERIAPSIS":"546.351","OBJECT_ID":"2021-036P","CLASSIFICATION_TYPE":"U","LAUNCH_DATE":"2021-04-29","RA_OF_ASC_NODE":"156.4464","MEAN_ELEMENT_THEORY":"SGP4","GP_ID":"198403524","SITE":"AFETR","OBJECT_NAME":"STARLINK-2545","ECCENTRICITY":"0.00012430","ARG_OF_PERICENTER":"58.0851","INCLINATION":"53.0530","CENTER_NAME":"EARTH","OBJECT_TYPE":"PAYLOAD","MEAN_MOTION_DOT":"0.00002527","DECAY_DATE":null,"SEMIMAJOR_AXIS":"6925.347","TLE_LINE2":"2 48289  53.0530 156.4464 0001243  58.0851 302.0259 15.06400495 48812","REV_AT_EPOCH":"4881","BSTAR":"0.00018845000000","TIME_SYSTEM":"UTC","ELEMENT_SET_NO":"999"},{"LAUNCH_DATE":"2021-04-29","RA_OF_ASC_NODE":"156.1912","MEAN_ELEMENT_THEORY":"SGP4","CLASSIFICATION_TYPE":"U","OBJECT_ID":"2021-036Q","OBJECT_NAME":"STARLINK-2540","ECCENTRICITY":"0.00016600","ARG_OF_PERICENTER":"60.1194","GP_ID":"198438502","SITE":"AFETR","MEAN_MOTION_DOT":"0.00004974","INCLINATION":"53.0554","CENTER_NAME":"EARTH","OBJECT_TYPE":"PAYLOAD","REV_AT_EPOCH":"4824","BSTAR":"0.00035263000000","TIME_SYSTEM":"UTC","ELEMENT_SET_NO":"999","DECAY_DATE":null,"SEMIMAJOR_AXIS":"6925.358","TLE_LINE2":"2 48290  53.0554 156.1912 0001660  60.1194 299.9960 15.06396814 48241","COUNTRY_CODE":"US","MEAN_ANOMALY":"299.9960","RCS_SIZE":"LARGE","MEAN_MOTION_DDOT":"0.0000000000000","PERIOD":"95.592","EPOCH":"2022-03-10T14:36:58.594464","TLE_LINE1":"1 48290U 21036Q   22069.60901151  .00004974  00000-0  35263-3 0  9993","FILE":"3354091","MEAN_MOTION":"15.06396814","REF_FRAME":"TEME","APOAPSIS":"548.373","NORAD_CAT_ID":"48290","EPHEMERIS_TYPE":"0","PERIAPSIS":"546.074"},{"PERIAPSIS":"546.020","REF_FRAME":"TEME","APOAPSIS":"548.347","NORAD_CAT_ID":"48291","EPHEMERIS_TYPE":"0","COUNTRY_CODE":"US","MEAN_ANOMALY":"305.6611","RCS_SIZE":"LARGE","PERIOD":"95.592","MEAN_MOTION_DDOT":"0.0000000000000","EPOCH":"2022-03-10T14:31:39.227232","TLE_LINE1":"1 48291U 21036R   22069.60531513  .00004681  00000-0  33283-3 0  9990","FILE":"3354091","MEAN_MOTION":"15.06409842","REV_AT_EPOCH":"4824","BSTAR":"0.00033283000000","TIME_SYSTEM":"UTC","ELEMENT_SET_NO":"999","DECAY_DATE":null,"SEMIMAJOR_AXIS":"6925.318","TLE_LINE2":"2 48291  53.0541 156.2004 0001680  54.4535 305.6611 15.06409842 48242","MEAN_MOTION_DOT":"0.00004681","INCLINATION":"53.0541","CENTER_NAME":"EARTH","OBJECT_TYPE":"PAYLOAD","OBJECT_NAME":"STARLINK-2555","ECCENTRICITY":"0.00016800","ARG_OF_PERICENTER":"54.4535","GP_ID":"198437258","SITE":"AFETR","LAUNCH_DATE":"2021-04-29","RA_OF_ASC_NODE":"156.2004","MEAN_ELEMENT_THEORY":"SGP4","CLASSIFICATION_TYPE":"U","OBJECT_ID":"2021-036R"},{"TLE_LINE2":"2 48292  53.0540 155.9202 0001267  65.7410 294.3711 15.06402414 48250","DECAY_DATE":null,"SEMIMAJOR_AXIS":"6925.341","TIME_SYSTEM":"UTC","ELEMENT_SET_NO":"999","REV_AT_EPOCH":"4825","BSTAR":"0.00025342000000","CENTER_NAME":"EARTH","OBJECT_TYPE":"PAYLOAD","INCLINATION":"53.0540","MEAN_MOTION_DOT":"0.00003495","GP_ID":"198437508","SITE":"AFETR","ECCENTRICITY":"0.00012670","ARG_OF_PERICENTER":"65.7410","OBJECT_NAME":"STARLINK-2542","CLASSIFICATION_TYPE":"U","OBJECT_ID":"2021-036S","MEAN_ELEMENT_THEORY":"SGP4","LAUNCH_DATE":"2021-04-29","RA_OF_ASC_NODE":"155.9202","PERIAPSIS":"546.329","EPHEMERIS_TYPE":"0","APOAPSIS":"548.084","NORAD_CAT_ID":"48292","REF_FRAME":"TEME","MEAN_MOTION":"15.06402414","FILE":"3354091","RCS_SIZE":"LARGE","EPOCH":"2022-03-10T16:00:33.593472","PERIOD":"95.592","MEAN_MOTION_DDOT":"0.0000000000000","TLE_LINE1":"1 48292U 21036S   22069.66705548  .00003495  00000-0  25342-3 0  9997","MEAN_ANOMALY":"294.3711","COUNTRY_CODE":"US"},{"RA_OF_ASC_NODE":"155.9290","LAUNCH_DATE":"2021-04-29","MEAN_ELEMENT_THEORY":"SGP4","OBJECT_ID":"2021-036T","CLASSIFICATION_TYPE":"U","OBJECT_NAME":"STARLINK-2550","ARG_OF_PERICENTER":"61.9761","ECCENTRICITY":"0.00016020","SITE":"AFETR","GP_ID":"198438256","MEAN_MOTION_DOT":"0.00004000","INCLINATION":"53.0539","OBJECT_TYPE":"PAYLOAD","CENTER_NAME":"EARTH","BSTAR":"0.00028729000000","REV_AT_EPOCH":"4825","ELEMENT_SET_NO":"999","TIME_SYSTEM":"UTC","SEMIMAJOR_AXIS":"6925.359","DECAY_DATE":null,"TLE_LINE2":"2 48293  53.0539 155.9290 0001602  61.9761 298.1390 15.06396470 48255","COUNTRY_CODE":"US","MEAN_ANOMALY":"298.1390","TLE_LINE1":"1 48293U 21036T   22069.66431587  .00004000  00000-0  28729-3 0  9992","MEAN_MOTION_DDOT":"0.0000000000000","RCS_SIZE":"LARGE","PERIOD":"95.592","EPOCH":"2022-03-10T15:56:36.891168","MEAN_MOTION":"15.06396470","FILE":"3354091","REF_FRAME":"TEME","NORAD_CAT_ID":"48293","APOAPSIS":"548.334","EPHEMERIS_TYPE":"0","PERIAPSIS":"546.115"},{"MEAN_MOTION_DOT":"0.00001258","INCLINATION":"53.0534","OBJECT_TYPE":"PAYLOAD","CENTER_NAME":"EARTH","BSTAR":"0.00010339000000","REV_AT_EPOCH":"4881","ELEMENT_SET_NO":"999","TIME_SYSTEM":"UTC","SEMIMAJOR_AXIS":"6925.396","DECAY_DATE":null,"TLE_LINE2":"2 48294  53.0534 156.5480 0001614  59.8276 300.2873 15.06384653 48812","RA_OF_ASC_NODE":"156.5480","LAUNCH_DATE":"2021-04-29","MEAN_ELEMENT_THEORY":"SGP4","CLASSIFICATION_TYPE":"U","OBJECT_ID":"2021-036U","OBJECT_NAME":"STARLINK-2533","ARG_OF_PERICENTER":"59.8276","ECCENTRICITY":"0.00016140","SITE":"AFETR","GP_ID":"198405645","REF_FRAME":"TEME","NORAD_CAT_ID":"48294","APOAPSIS":"548.378","EPHEMERIS_TYPE":"0","PERIAPSIS":"546.143","COUNTRY_CODE":"US","MEAN_ANOMALY":"300.2873","TLE_LINE1":"1 48294U 21036U   22069.52792804  .00001258  00000-0  10339-3 0  9990","PERIOD":"95.593","RCS_SIZE":"LARGE","EPOCH":"2022-03-10T12:40:12.982656","MEAN_MOTION_DDOT":"0.0000000000000","FILE":"3353627","MEAN_MOTION":"15.06384653"},{"MEAN_ANOMALY":"299.9622","COUNTRY_CODE":"US","FILE":"3353563","MEAN_MOTION":"15.06432807","EPOCH":"2022-03-10T15:45:58.538592","RCS_SIZE":"LARGE","PERIOD":"95.590","MEAN_MOTION_DDOT":"0.0000000000000","TLE_LINE1":"1 48295U 21036V   22069.65692753  .00010394  00000-0  71504-3 0  9999","PERIAPSIS":"546.137","REF_FRAME":"TEME","EPHEMERIS_TYPE":"0","APOAPSIS":"548.089","NORAD_CAT_ID":"48295","ECCENTRICITY":"0.00014100","ARG_OF_PERICENTER":"60.1507","OBJECT_NAME":"STARLINK-2535","GP_ID":"198403470","SITE":"AFETR","MEAN_ELEMENT_THEORY":"SGP4","LAUNCH_DATE":"2021-04-29","RA_OF_ASC_NODE":"155.9504","OBJECT_ID":"2021-036V","CLASSIFICATION_TYPE":"U","TIME_SYSTEM":"UTC","ELEMENT_SET_NO":"999","REV_AT_EPOCH":"4883","BSTAR":"0.00071504000000","TLE_LINE2":"2 48295  53.0517 155.9504 0001410  60.1507 299.9622 15.06432807 48833","DECAY_DATE":null,"SEMIMAJOR_AXIS":"6925.248","MEAN_MOTION_DOT":"0.00010394","CENTER_NAME":"EARTH","OBJECT_TYPE":"PAYLOAD","INCLINATION":"53.0517"},{"PERIAPSIS":"546.204","REF_FRAME":"TEME","NORAD_CAT_ID":"48296","APOAPSIS":"548.223","EPHEMERIS_TYPE":"0","COUNTRY_CODE":"US","MEAN_ANOMALY":"293.6790","TLE_LINE1":"1 48296U 21036W   22069.52056305  .00001331  00000-0  10825-3 0  9993","EPOCH":"2022-03-10T12:29:36.647520","RCS_SIZE":"LARGE","PERIOD":"95.592","MEAN_MOTION_DDOT":"0.0000000000000","FILE":"3353573","MEAN_MOTION":"15.06400015","BSTAR":"0.00010825000000","REV_AT_EPOCH":"4881","ELEMENT_SET_NO":"999","TIME_SYSTEM":"UTC","SEMIMAJOR_AXIS":"6925.349","DECAY_DATE":null,"TLE_LINE2":"2 48296  53.0530 156.5747 0001457  66.4352 293.6790 15.06400015 48814","MEAN_MOTION_DOT":"0.00001331","INCLINATION":"53.0530","OBJECT_TYPE":"PAYLOAD","CENTER_NAME":"EARTH","OBJECT_NAME":"STARLINK-2546","ARG_OF_PERICENTER":"66.4352","ECCENTRICITY":"0.00014570","SITE":"AFETR","GP_ID":"198404370","RA_OF_ASC_NODE":"156.5747","LAUNCH_DATE":"2021-04-29","MEAN_ELEMENT_THEORY":"SGP4","OBJECT_ID":"2021-036W","CLASSIFICATION_TYPE":"U"},{"LAUNCH_DATE":"2021-04-29","RA_OF_ASC_NODE":"156.2908","MEAN_ELEMENT_THEORY":"SGP4","OBJECT_ID":"2021-036X","CLASSIFICATION_TYPE":"U","OBJECT_NAME":"STARLINK-2544","ECCENTRICITY":"0.00017990","ARG_OF_PERICENTER":"42.7720","GP_ID":"198438756","SITE":"AFETR","MEAN_MOTION_DOT":"0.00004476","INCLINATION":"53.0542","CENTER_NAME":"EARTH","OBJECT_TYPE":"PAYLOAD","REV_AT_EPOCH":"4824","BSTAR":"0.00031925000000","TIME_SYSTEM":"UTC","ELEMENT_SET_NO":"999","DECAY_DATE":null,"SEMIMAJOR_AXIS":"6925.369","TLE_LINE2":"2 48297  53.0542 156.2908 0001799  42.7720 317.3408 15.06393425 48242","COUNTRY_CODE":"US","MEAN_ANOMALY":"317.3408","PERIOD":"95.593","RCS_SIZE":"LARGE","EPOCH":"2022-03-10T13:59:50.176896","MEAN_MOTION_DDOT":"0.0000000000000","TLE_LINE1":"1 48297U 21036X   22069.58321964  .00004476  00000-0  31925-3 0  9993","MEAN_MOTION":"15.06393425","FILE":"3354091","REF_FRAME":"TEME","APOAPSIS":"548.480","NORAD_CAT_ID":"48297","EPHEMERIS_TYPE":"0","PERIAPSIS":"545.988"}];
